NORAD_CAT_ID,OBJECT_NAME,OBJECT_TYPE,EPOCH,MEAN_MOTION,ECCENTRICITY,INCLINATION,RA_OF_ASC_NODE,ARG_OF_PERICENTER,MEAN_ANOMALY,BSTAR,MEAN_MOTION_DOT,MEAN_MOTION_DDOT,TLE_LINE0,TLE_LINE1,TLE_LINE2,SEMIMAJOR_AXIS,PERIOD,APOGEE,PERIGEE,DECAYED
51887.0,STARLINK-3551,PAYLOAD,2022-12-02 10:39:17,15.08831422,0.0002801,53.2172,315.8173,33.5735,326.5435,0.00010002,1.303e-05,0.0,0 STARLINK-3551,1 51887U 22022AM  22336.44394687  .00001303  00000-0  10002-3 0  9991,2 51887  53.2172 315.8173 0002801  33.5735 326.5435 15.08831422 43106,6917.906999999997,95.438,541.7090000000002,537.8340000000002,0.0
51887.0,STARLINK-3551,PAYLOAD,2022-12-03 07:19:17,15.08837781,0.0002808,53.2176,311.9514,34.4743,325.6431,6.501999999999999e-07,-2.78e-06,0.0,0 STARLINK-3551,1 51887U 22022AM  22337.30506777 -.00000278  00000-0  65020-6 0  9996,2 51887  53.2176 311.9514 0002808  34.4743 325.6431 15.08837781 43236,6917.887,95.438,541.695,537.81,0.0
51887.0,STARLINK-3551,PAYLOAD,2022-12-03 15:16:13,15.08840859,0.0002813,53.2173,310.4647,35.2174,324.9004,-1.6364e-05,-5.49e-06,0.0,0 STARLINK-3551,1 51887U 22022AM  22337.63626616 -.00000549  00000-0 -16364-4 0  9994,2 51887  53.2173 310.4647 0002813  35.2174 324.9004 15.08840859 43280,6917.878000000002,95.438,541.689,537.797,0.0
51887.0,STARLINK-3551,PAYLOAD,2022-12-04 02:23:55,15.08837383,0.0002833,53.2173,308.3833,34.1979,325.9195,-0.00013411,-2.422e-05,0.0,0 STARLINK-3551,1 51887U 22022AM  22338.09995354 -.00002422  00000-0 -13411-3 0  9994,2 51887  53.2173 308.3833 0002833  34.1979 325.9195 15.08837383 43354,6917.888000000001,95.438,541.7130000000002,537.794,0.0
51887.0,STARLINK-3551,PAYLOAD,2022-12-04 10:20:51,15.08839801,0.0002711,53.2181,306.8959,38.3575,321.7609,-2.942e-05,-7.57e-06,0.0,0 STARLINK-3551,1 51887U 22022AM  22338.43115046 -.00000757  00000-0 -29420-4 0  9991,2 51887  53.2181 306.8959 0002711  38.3575 321.7609 15.08839801 43405,6917.880999999999,95.438,541.621,537.871,0.0
51887.0,STARLINK-3551,PAYLOAD,2022-12-04 15:07:00,15.08838986,0.0002767,53.2171,306.0045,33.9917,326.1252,7.3319e-05,8.79e-06,0.0,0 STARLINK-3551,1 51887U 22022AM  22338.62986708  .00000879  00000-0  73319-4 0  9992,2 51887  53.2171 306.0045 0002767  33.9917 326.1252 15.08838986 43433,6917.8830000000025,95.438,541.663,537.8340000000002,0.0
51887.0,STARLINK-3551,PAYLOAD,2022-12-05 07:00:51,15.08842654,0.0002686,53.2179,303.0305,33.9248,326.1915,0.00012375,1.682e-05,0.0,0 STARLINK-3551,1 51887U 22022AM  22339.29226362  .00001682  00000-0  12375-3 0  9996,2 51887  53.2179 303.0305 0002686  33.9248 326.1915 15.08842654 43538,6917.871999999999,95.437,541.595,537.879,0.0
51887.0,STARLINK-3551,PAYLOAD,2022-12-05 21:19:19,15.08843195,0.0002661,53.2177,300.3542,33.8433,326.2729,0.00018385,2.639e-05,0.0,0 STARLINK-3551,1 51887U 22022AM  22339.88842065  .00002639  00000-0  18385-3 0  9995,2 51887  53.2177 300.3542 0002661  33.8433 326.2729 15.08843195 43622,6917.871,95.437,541.576,537.895,0.0
51887.0,STARLINK-3551,PAYLOAD,2022-12-06 03:40:52,15.08844782,0.000265,53.2176,299.1648,33.9601,326.156,0.00019127,2.757e-05,0.0,0 STARLINK-3551,1 51887U 22022AM  22340.15337968  .00002757  00000-0  19127-3 0  9994,2 51887  53.2176 299.1648 0002650  33.9601 326.1560 15.08844782 43668,6917.866,95.437,541.564,537.898,0.0
51887.0,STARLINK-3551,PAYLOAD,2022-12-06 21:10:07,15.08839321,0.0002758,53.2177,295.8935,36.5419,323.5761,4.3878e-06,-2.19e-06,0.0,0 STARLINK-3551,1 51887U 22022AM  22340.88202801 -.00000219  00000-0  43878-5 0  9995,2 51887  53.2177 295.8935 0002758  36.5419 323.5761 15.08839321 43775,6917.882,95.438,541.655,537.84,0.0
51887.0,STARLINK-3551,PAYLOAD,2022-12-07 14:39:22,15.08832268,0.0003091,53.2172,292.6244,35.4222,324.6975,-4.5623e-05,-1.015e-05,0.0,0 STARLINK-3551,1 51887U 22022AM  22341.61067672 -.00001015  00000-0 -45623-4 0  9997,2 51887  53.2172 292.6244 0003091  35.4222 324.6975 15.08832268 43883,6917.904,95.438,541.9069999999998,537.631,0.0
51887.0,STARLINK-3551,PAYLOAD,2022-12-08 03:22:26,15.0884083,0.0002579,53.2173,290.2437,23.1579,336.9529,1.4344e-06,-2.66e-06,0.0,0 STARLINK-3551,1 51887U 22022AM  22342.14058716 -.00000266  00000-0  14344-5 0  9998,2 51887  53.2173 290.2437 0002579  23.1579 336.9529 15.08840830 43965,6917.878000000002,95.438,541.5269999999998,537.9590000000002,0.0
51887.0,STARLINK-3551,PAYLOAD,2022-12-09 03:13:12,15.08846638,0.0002759,53.2185,285.7867,31.9512,328.1647,0.00019083,2.751e-05,0.0,0 STARLINK-3551,1 51887U 22022AM  22343.13417551  .00002751  00000-0  19083-3 0  9997,2 51887  53.2185 285.7867 0002759  31.9512 328.1647 15.08846638 44112,6917.86,95.437,541.634,537.816,0.0
51887.0,STARLINK-3551,PAYLOAD,2022-12-09 06:23:58,15.08848946,0.0002648,53.2181,285.1911,31.1269,328.9879,0.00019083,2.751e-05,0.0,0 STARLINK-3551,1 51887U 22022AM  22343.26665336  .00002751  00000-0  19083-3 0  9997,2 51887  53.2181 285.1911 0002648  31.1269 328.9879 15.08848946 44131,6917.853,95.437,541.55,537.886,0.0
51887.0,STARLINK-3551,PAYLOAD,2022-12-09 20:42:31,15.08791253,0.0003757,53.2182,282.5178,6.9452,353.1592,-0.00030323,-5.106e-05,0.0,0 STARLINK-3551,1 51887U 22022AM  22343.86286901 -.00005106  00000-0 -30323-3 0  9999,2 51887  53.2182 282.5178 0003757   6.9452 353.1592 15.08791253 44224,6918.029,95.441,542.493,537.295,0.0
51887.0,STARLINK-3551,PAYLOAD,2022-12-10 01:28:40,15.08810186,0.0003188999999999,53.2179,281.6247,14.8695,345.23900000000015,-3.18e-05,-7.94e-06,0.0,0 STARLINK-3551,1 51887U 22022AM  22344.06157410 -.00000794  00000-0 -31800-4 0  9994,2 51887  53.2179 281.6247 0003189  14.8695 345.2390 15.08810186 44251,6917.972,95.439,542.043,537.63,0.0
51887.0,STARLINK-3551,PAYLOAD,2022-12-11 01:19:25,15.08838625,0.0002599,53.2178,277.1622,31.208,328.9066,7.0505e-06,-1.76e-06,0.0,0 STARLINK-3551,1 51887U 22022AM  22345.05515582 -.00000176  00000-0  70505-5 0  9991,2 51887  53.2178 277.1622 0002599  31.2080 328.9066 15.08838625 44405,6917.885,95.438,541.548,537.952,0.0
51887.0,STARLINK-3551,PAYLOAD,2022-12-12 04:20:59,15.08828478,0.0002678,53.2177,272.1047,27.3259,332.7873,0.0003416,5.151e-05,0.0,0 STARLINK-3551,1 51887U 22022AM  22346.18124390  .00005151  00000-0  34160-3 0  9991,2 51887  53.2177 272.1047 0002678  27.3259 332.7873 15.08828478 44574,6917.916,95.438,541.633,537.928,0.0
51887.0,STARLINK-3551,PAYLOAD,2022-12-13 04:11:46,15.08841499,0.0002472,53.2171,267.6437,31.9913,328.1229,0.00013925,1.929e-05,0.0,0 STARLINK-3551,1 51887U 22022AM  22347.17483815  .00001929  00000-0  13925-3 0  9996,2 51887  53.2171 267.6437 0002472  31.9913 328.1229 15.08841499 44729,6917.876,95.437,541.451,538.031,0.0
51887.0,STARLINK-3551,PAYLOAD,2022-12-14 04:02:32,15.08849306,0.000256,53.2173,263.1834,31.3207,328.7937,6.2905e-05,7.13e-06,0.0,0 STARLINK-3551,1 51887U 22022AM  22348.16843128  .00000713  00000-0  62905-4 0  9996,2 51887  53.2173 263.1834 0002560  31.3207 328.7937 15.08849306 44874,6917.852,95.437,541.488,537.946,0.0
51887.0,STARLINK-3551,PAYLOAD,2022-12-15 03:53:20,15.08807838,0.0002707,53.2171,258.7222,34.2252,325.8914,0.00039117,5.937e-05,0.0,0 STARLINK-3551,1 51887U 22022AM  22349.16204527  .00005937  00000-0  39117-3 0  9992,2 51887  53.2171 258.7222 0002707  34.2252 325.8914 15.08807838 45023,6917.979,95.44,541.716,537.971,0.0
51887.0,STARLINK-3551,PAYLOAD,2022-12-15 18:11:47,15.08842872,0.0002572,53.2169,256.047,28.992,331.1215,0.00011539,1.549e-05,0.0,0 STARLINK-3551,1 51887U 22022AM  22349.75818992  .00001549  00000-0  11539-3 0  9997,2 51887  53.2169 256.0470 0002572  28.9920 331.1215 15.08842872 45119,6917.871999999999,95.437,541.516,537.957,0.0
51887.0,STARLINK-3551,PAYLOAD,2022-12-16 00:33:20,15.08843371,0.000263,53.2167,254.8576,28.6949,331.4188,4.5813e-05,4.41e-06,0.0,0 STARLINK-3551,1 51887U 22022AM  22350.02315121  .00000441  00000-0  45813-4 0  9998,2 51887  53.2167 254.8576 0002630  28.6949 331.4188 15.08843371 45154,6917.87,95.437,541.554,537.9159999999998,0.0
51887.0,STARLINK-3551,PAYLOAD,2022-12-16 03:44:06,15.08843976,0.0002648999999999,53.2166,254.2629,27.6529,332.4603,3.6843e-05,2.98e-06,0.0,0 STARLINK-3551,1 51887U 22022AM  22350.15563131  .00000298  00000-0  36843-4 0  9991,2 51887  53.2166 254.2629 0002649  27.6529 332.4603 15.08843976 45175,6917.868,95.437,541.566,537.901,0.0
51887.0,STARLINK-3551,PAYLOAD,2022-12-16 18:02:35,15.08832488,0.0002603,53.2164,251.587,27.6453,332.4677,8.8205e-05,1.115e-05,0.0,0 STARLINK-3551,1 51887U 22022AM  22350.75179656  .00001115  00000-0  88205-4 0  9990,2 51887  53.2164 251.5870 0002603  27.6453 332.4677 15.08832488 45264,6917.903,95.438,541.569,537.9680000000002,0.0
51887.0,STARLINK-3551,PAYLOAD,2022-12-17 09:56:26,15.08832519,0.0002722,53.2167,248.615,29.1005,331.0138,5.9095e-05,6.52e-06,0.0,0 STARLINK-3551,1 51887U 22022AM  22351.41419958  .00000652  00000-0  59095-4 0  9996,2 51887  53.2167 248.6150 0002722  29.1005 331.0138 15.08832519 45360,6917.903,95.438,541.651,537.885,0.0
51887.0,STARLINK-3551,PAYLOAD,2022-12-18 01:50:18,15.08839312,0.0002653,53.2171,245.6407,32.9896,327.1261,1.8823e-05,1.1e-07,0.0,0 STARLINK-3551,1 51887U 22022AM  22352.07659886  .00000011  00000-0  18823-4 0  9998,2 51887  53.2171 245.6407 0002653  32.9896 327.1261 15.08839312 45462,6917.882,95.438,541.5830000000002,537.9119999999998,0.0
51887.0,STARLINK-3551,PAYLOAD,2022-12-18 09:47:14,15.08828441,0.0002723999999999,53.2169,244.154,31.5631,328.5524,9.9029e-06,-1.31e-06,0.0,0 STARLINK-3551,1 51887U 22022AM  22352.40780819 -.00000131  00000-0  99029-5 0  9998,2 51887  53.2169 244.1540 0002724  31.5631 328.5524 15.08828441 45516,6917.916,95.438,541.665,537.896,0.0
51887.0,STARLINK-3551,PAYLOAD,2022-12-19 01:41:06,15.08826737,0.0002733,53.2168,241.1798,30.2412,329.8738,-7.9459e-06,-4.15e-06,0.0,0 STARLINK-3551,1 51887U 22022AM  22353.07021444 -.00000415  00000-0 -79459-5 0  9995,2 51887  53.2168 241.1798 0002733  30.2412 329.8738 15.08826737 45618,6917.920999999999,95.438,541.677,537.895,0.0
